[{"OBJECT_NAME":"STARLINK-34361","OBJECT_ID":"2025-130N","EPOCH":"2026-03-09T10:26:50.063424","MEAN_MOTION":15.3021918,"ECCENTRICITY":9.235e-5,"INCLINATION":53.16,"RA_OF_ASC_NODE":89.7525,"ARG_OF_PERICENTER":79.2623,"MEAN_ANOMALY":280.8482,"EPHEMERIS_TYPE":0,"CLASSIFICATION_TYPE":"U","NORAD_CAT_ID":64450,"ELEMENT_SET_NO":999,"REV_AT_EPOCH":4183,"BSTAR":0.00079881741,"MEAN_MOTION_DOT":0.00023388,"MEAN_MOTION_DDOT":0},{"OBJECT_NAME":"OBJECT BE","OBJECT_ID":"2025-313BE","EPOCH":"2026-03-09T16:43:59.380320","MEAN_MOTION":15.29801687,"ECCENTRICITY":0.00072083,"INCLINATION":97.3989,"RA_OF_ASC_NODE":145.3568,"ARG_OF_PERICENTER":335.3714,"MEAN_ANOMALY":24.7181,"EPHEMERIS_TYPE":0,"CLASSIFICATION_TYPE":"U","NORAD_CAT_ID":67482,"ELEMENT_SET_NO":999,"REV_AT_EPOCH":797,"BSTAR":0.0026504328,"MEAN_MOTION_DOT":0.00077178,"MEAN_MOTION_DDOT":0}]
